[{"OBJECT_NAME":"ONEWEB-0290","OBJECT_ID":"2021-075F","EPOCH":"2025-11-29T05:43:29.051616","MEAN_MOTION":13.17649512,"ECCENTRICITY":0.00019874,"INCLINATION":87.9134,"RA_OF_ASC_NODE":45.6033,"ARG_OF_PERICENTER":84.8138,"MEAN_ANOMALY":275.322,"EPHEMERIS_TYPE":0,"CLASSIFICATION_TYPE":"U","NORAD_CAT_ID":49080,"ELEMENT_SET_NO":999,"REV_AT_EPOCH":20728,"BSTAR":8.9610198e-5,"MEAN_MOTION_DOT":4.8e-7,"MEAN_MOTION_DDOT":0},{"OBJECT_NAME":"ONEWEB-0291","OBJECT_ID":"2021-075G","EPOCH":"2025-11-29T16:17:42.099936","MEAN_MOTION":13.17647922,"ECCENTRICITY":0.0001364,"INCLINATION":87.9137,"RA_OF_ASC_NODE":45.5219,"ARG_OF_PERICENTER":97.9294,"MEAN_ANOMALY":262.1992,"EPHEMERIS_TYPE":0,"CLASSIFICATION_TYPE":"U","NORAD_CAT_ID":49081,"ELEMENT_SET_NO":999,"REV_AT_EPOCH":20733,"BSTAR":5.5651e-5,"MEAN_MOTION_DOT":3.4e-7,"MEAN_MOTION_DDOT":0},{"OBJECT_NAME":"ONEWEB-0293","OBJECT_ID":"2021-075H","EPOCH":"2025-11-29T15:04:48.029088","MEAN_MOTION":13.1764795,"ECCENTRICITY":0.0001729,"INCLINATION":87.9123,"RA_OF_ASC_NODE":45.5536,"ARG_OF_PERICENTER":97.5318,"MEAN_ANOMALY":262.6009,"EPHEMERIS_TYPE":0,"CLASSIFICATION_TYPE":"U","NORAD_CAT_ID":49082,"ELEMENT_SET_NO":999,"REV_AT_EPOCH":20735,"BSTAR":-0.00016499,"MEAN_MOTION_DOT":-5.1e-7,"MEAN_MOTION_DDOT":0},{"OBJECT_NAME":"ONEWEB-0294","OBJECT_ID":"2021-075J","EPOCH":"2025-11-29T15:56:35.128608","MEAN_MOTION":13.1244405,"ECCENTRICITY":0.0001659,"INCLINATION":87.8957,"RA_OF_ASC_NODE":30.2917,"ARG_OF_PERICENTER":83.5936,"MEAN_ANOMALY":276.5381,"EPHEMERIS_TYPE":0,"CLASSIFICATION_TYPE":"U","NORAD_CAT_ID":49083,"ELEMENT_SET_NO":999,"REV_AT_EPOCH":20840,"BSTAR":-0.00076382,"MEAN_MOTION_DOT":-2.62e-6,"MEAN_MOTION_DDOT":0},{"OBJECT_NAME":"ONEWEB-0295","OBJECT_ID":"2021-075K","EPOCH":"2025-11-29T15:03:34.266816","MEAN_MOTION":13.1764734,"ECCENTRICITY":0.0001399,"INCLINATION":87.9127,"RA_OF_ASC_NODE":45.5585,"ARG_OF_PERICENTER":101.0161,"MEAN_ANOMALY":259.1128,"EPHEMERIS_TYPE":0,"CLASSIFICATION_TYPE":"U","NORAD_CAT_ID":49084,"ELEMENT_SET_NO":999,"REV_AT_EPOCH":20731,"BSTAR":0.0001271,"MEAN_MOTION_DOT":6.2e-7,"MEAN_MOTION_DDOT":0},{"OBJECT_NAME":"ONEWEB-0296","OBJECT_ID":"2021-075L","EPOCH":"2025-11-29T13:38:46.402368","MEAN_MOTION":13.12443453,"ECCENTRICITY":0.0001327,"INCLINATION":87.8956,"RA_OF_ASC_NODE":30.3159,"ARG_OF_PERICENTER":91.3907,"MEAN_ANOMALY":268.7373,"EPHEMERIS_TYPE":0,"CLASSIFICATION_TYPE":"U","NORAD_CAT_ID":49085,"ELEMENT_SET_NO":999,"REV_AT_EPOCH":20839,"BSTAR":-0.0010184,"MEAN_MOTION_DOT":-3.54e-6,"MEAN_MOTION_DDOT":0},{"OBJECT_NAME":"ONEWEB-0297","OBJECT_ID":"2021-075M","EPOCH":"2025-11-29T16:12:57.188160","MEAN_MOTION":13.12442881,"ECCENTRICITY":0.000172,"INCLINATION":87.8946,"RA_OF_ASC_NODE":30.3272,"ARG_OF_PERICENTER":100.9743,"MEAN_ANOMALY":259.1579,"EPHEMERIS_TYPE":0,"CLASSIFICATION_TYPE":"U","NORAD_CAT_ID":49086,"ELEMENT_SET_NO":999,"REV_AT_EPOCH":20901,"BSTAR":0.00020081,"MEAN_MOTION_DOT":8.5e-7,"MEAN_MOTION_DDOT":0},{"OBJECT_NAME":"ONEWEB-0298","OBJECT_ID":"2021-075N","EPOCH":"2025-11-29T16:59:12.419232","MEAN_MOTION":13.17647775,"ECCENTRICITY":0.0001802,"INCLINATION":87.9119,"RA_OF_ASC_NODE":45.5393,"ARG_OF_PERICENTER":102.834,"MEAN_ANOMALY":257.2993,"EPHEMERIS_TYPE":0,"CLASSIFICATION_TYPE":"U","NORAD_CAT_ID":49087,"ELEMENT_SET_NO":999,"REV_AT_EPOCH":20735,"BSTAR":0.00013888,"MEAN_MOTION_DOT":6.7e-7,"MEAN_MOTION_DDOT":0},{"OBJECT_NAME":"ONEWEB-0299","OBJECT_ID":"2021-075P","EPOCH":"2025-11-29T15:12:05.713344","MEAN_MOTION":13.17648002,"ECCENTRICITY":0.000161,"INCLINATION":87.913,"RA_OF_ASC_NODE":45.5145,"ARG_OF_PERICENTER":105.4711,"MEAN_ANOMALY":254.6599,"EPHEMERIS_TYPE":0,"CLASSIFICATION_TYPE":"U","NORAD_CAT_ID":49088,"ELEMENT_SET_NO":999,"REV_AT_EPOCH":20732,"BSTAR":-7.1846e-5,"MEAN_MOTION_DOT":-1.5e-7,"MEAN_MOTION_DDOT":0},{"OBJECT_NAME":"ONEWEB-0300","OBJECT_ID":"2021-075Q","EPOCH":"2025-11-29T16:01:15.881088","MEAN_MOTION":13.12443827,"ECCENTRICITY":0.0002026,"INCLINATION":87.8956,"RA_OF_ASC_NODE":30.2874,"ARG_OF_PERICENTER":107.2663,"MEAN_ANOMALY":252.8687,"EPHEMERIS_TYPE":0,"CLASSIFICATION_TYPE":"U","NORAD_CAT_ID":49089,"ELEMENT_SET_NO":999,"REV_AT_EPOCH":20903,"BSTAR":-0.00051152,"MEAN_MOTION_DOT":-1.71e-6,"MEAN_MOTION_DDOT":0},{"OBJECT_NAME":"ONEWEB-0301","OBJECT_ID":"2021-075R","EPOCH":"2025-11-29T17:27:40.834080","MEAN_MOTION":13.12441769,"ECCENTRICITY":0.0002096,"INCLINATION":87.8956,"RA_OF_ASC_NODE":30.2783,"ARG_OF_PERICENTER":108.0925,"MEAN_ANOMALY":252.0432,"EPHEMERIS_TYPE":0,"CLASSIFICATION_TYPE":"U","NORAD_CAT_ID":49090,"ELEMENT_SET_NO":999,"REV_AT_EPOCH":20840,"BSTAR":-0.001202,"MEAN_MOTION_DOT":-4.2e-6,"MEAN_MOTION_DDOT":0},{"OBJECT_NAME":"ONEWEB-0302","OBJECT_ID":"2021-075S","EPOCH":"2025-11-29T17:08:59.749152","MEAN_MOTION":13.12441043,"ECCENTRICITY":0.0001604,"INCLINATION":87.8958,"RA_OF_ASC_NODE":30.2887,"ARG_OF_PERICENTER":89.5198,"MEAN_ANOMALY":270.6114,"EPHEMERIS_TYPE":0,"CLASSIFICATION_TYPE":"U","NORAD_CAT_ID":49091,"ELEMENT_SET_NO":999,"REV_AT_EPOCH":20838,"BSTAR":-0.00066978,"MEAN_MOTION_DOT":-2.28e-6,"MEAN_MOTION_DDOT":0},{"OBJECT_NAME":"ONEWEB-0304","OBJECT_ID":"2021-075T","EPOCH":"2025-11-29T16:24:59.802336","MEAN_MOTION":13.17651693,"ECCENTRICITY":0.0001639,"INCLINATION":87.9139,"RA_OF_ASC_NODE":45.5356,"ARG_OF_PERICENTER":100.8506,"MEAN_ANOMALY":259.281,"EPHEMERIS_TYPE":0,"CLASSIFICATION_TYPE":"U","NORAD_CAT_ID":49092,"ELEMENT_SET_NO":999,"REV_AT_EPOCH":20730,"BSTAR":-0.0023365,"MEAN_MOTION_DOT":-8.94e-6,"MEAN_MOTION_DDOT":0},{"OBJECT_NAME":"ONEWEB-0305","OBJECT_ID":"2021-075U","EPOCH":"2025-11-29T16:15:16.172928","MEAN_MOTION":13.17649008,"ECCENTRICITY":0.0001408,"INCLINATION":87.9138,"RA_OF_ASC_NODE":45.5135,"ARG_OF_PERICENTER":109.3529,"MEAN_ANOMALY":250.7754,"EPHEMERIS_TYPE":0,"CLASSIFICATION_TYPE":"U","NORAD_CAT_ID":49093,"ELEMENT_SET_NO":999,"REV_AT_EPOCH":20733,"BSTAR":-0.00021306,"MEAN_MOTION_DOT":-7.0e-7,"MEAN_MOTION_DDOT":0},{"OBJECT_NAME":"ONEWEB-0308","OBJECT_ID":"2021-075V","EPOCH":"2025-11-29T16:59:38.746176","MEAN_MOTION":13.12440764,"ECCENTRICITY":0.0001807,"INCLINATION":87.8955,"RA_OF_ASC_NODE":30.2828,"ARG_OF_PERICENTER":99.6007,"MEAN_ANOMALY":260.5325,"EPHEMERIS_TYPE":0,"CLASSIFICATION_TYPE":"U","NORAD_CAT_ID":49094,"ELEMENT_SET_NO":999,"REV_AT_EPOCH":20839,"BSTAR":0.00015815,"MEAN_MOTION_DOT":7.0e-7,"MEAN_MOTION_DDOT":0},{"OBJECT_NAME":"ONEWEB-0309","OBJECT_ID":"2021-075W","EPOCH":"2025-11-29T16:20:07.937088","MEAN_MOTION":13.17647801,"ECCENTRICITY":0.0001656,"INCLINATION":87.9138,"RA_OF_ASC_NODE":45.5291,"ARG_OF_PERICENTER":87.4032,"MEAN_ANOMALY":272.7289,"EPHEMERIS_TYPE":0,"CLASSIFICATION_TYPE":"U","NORAD_CAT_ID":49095,"ELEMENT_SET_NO":999,"REV_AT_EPOCH":20730,"BSTAR":-9.554e-5,"MEAN_MOTION_DOT":-2.4e-7,"MEAN_MOTION_DDOT":0},{"OBJECT_NAME":"ONEWEB-0310","OBJECT_ID":"2021-075X","EPOCH":"2025-11-29T17:20:39.947712","MEAN_MOTION":13.12442069,"ECCENTRICITY":0.0001731,"INCLINATION":87.8947,"RA_OF_ASC_NODE":30.3177,"ARG_OF_PERICENTER":95.6028,"MEAN_ANOMALY":264.5298,"EPHEMERIS_TYPE":0,"CLASSIFICATION_TYPE":"U","NORAD_CAT_ID":49096,"ELEMENT_SET_NO":999,"REV_AT_EPOCH":20902,"BSTAR":-0.001206,"MEAN_MOTION_DOT":-4.21e-6,"MEAN_MOTION_DDOT":0}]
