ONEWEB-0290             
1 49080U 21075F   25333.23853069  .00000048  00000+0  89610-4 0  9997
2 49080  87.9134  45.6033 0001987  84.8138 275.3220 13.17649512207282
ONEWEB-0291             
1 49081U 21075G   25333.67895949  .00000034  00000+0  55651-4 0  9992
2 49081  87.9137  45.5219 0001364  97.9294 262.1992 13.17647922207337
ONEWEB-0293             
1 49082U 21075H   25333.62833367 -.00000051  00000+0 -16499-3 0  9991
2 49082  87.9123  45.5536 0001729  97.5318 262.6009 13.17647950207350
ONEWEB-0294             
1 49083U 21075J   25333.66429547 -.00000262  00000+0 -76382-3 0  9998
2 49083  87.8957  30.2917 0001659  83.5936 276.5381 13.12444050208407
ONEWEB-0295             
1 49084U 21075K   25333.62747994  .00000062  00000+0  12710-3 0  9995
2 49084  87.9127  45.5585 0001399 101.0161 259.1128 13.17647340207312
ONEWEB-0296             
1 49085U 21075L   25333.56859262 -.00000354  00000+0 -10184-2 0  9999
2 49085  87.8956  30.3159 0001327  91.3907 268.7373 13.12443453208392
ONEWEB-0297             
1 49086U 21075M   25333.67566190  .00000085  00000+0  20081-3 0  9994
2 49086  87.8946  30.3272 0001720 100.9743 259.1579 13.12442881209016
ONEWEB-0298             
1 49087U 21075N   25333.70778263  .00000067  00000+0  13888-3 0  9992
2 49087  87.9119  45.5393 0001802 102.8340 257.2993 13.17647775207355
ONEWEB-0299             
1 49088U 21075P   25333.63339946 -.00000015  00000+0 -71846-4 0  9990
2 49088  87.9130  45.5145 0001610 105.4711 254.6599 13.17648002207326
ONEWEB-0300             
1 49089U 21075Q   25333.66754492 -.00000171  00000+0 -51152-3 0  9991
2 49089  87.8956  30.2874 0002026 107.2663 252.8687 13.12443827209031
ONEWEB-0301             
1 49090U 21075R   25333.72755595 -.00000420  00000+0 -12020-2 0  9992
2 49090  87.8956  30.2783 0002096 108.0925 252.0432 13.12441769208402
ONEWEB-0302             
1 49091U 21075S   25333.71458043 -.00000228  00000+0 -66978-3 0  9998
2 49091  87.8958  30.2887 0001604  89.5198 270.6114 13.12441043208384
ONEWEB-0304             
1 49092U 21075T   25333.68402549 -.00000894  00000+0 -23365-2 0  9996
2 49092  87.9139  45.5356 0001639 100.8506 259.2810 13.17651693207301
ONEWEB-0305             
1 49093U 21075U   25333.67727052 -.00000070  00000+0 -21306-3 0  9995
2 49093  87.9138  45.5135 0001408 109.3529 250.7754 13.17649008207332
ONEWEB-0308             
1 49094U 21075V   25333.70808734  .00000070  00000+0  15815-3 0  9993
2 49094  87.8955  30.2828 0001807  99.6007 260.5325 13.12440764208397
ONEWEB-0309             
1 49095U 21075W   25333.68064742 -.00000024  00000+0 -95540-4 0  9999
2 49095  87.9138  45.5291 0001656  87.4032 272.7289 13.17647801207300
ONEWEB-0310             
1 49096U 21075X   25333.72268458 -.00000421  00000+0 -12060-2 0  9990
2 49096  87.8947  30.3177 0001731  95.6028 264.5298 13.12442069209027
